ONEWEB-0228             
1 48780U 21045P   24253.59569754  .00000280  00000+0  71025-3 0  9992
2 48780  87.9080  27.6474 0001682 101.7033 258.4286 13.15549112159443
